COSMOS 2058             
1 20465U 90010A   26095.26203936  .00006125  00000+0  35896-3 0  9997
2 20465  82.4730  21.2470 0008149 235.6862 124.3598 15.11596258946254
SL-14 R/B               
1 20466U 90010B   26094.92344080  .00000694  00000+0  81098-4 0  9997
2 20466  82.5007 242.7404 0019066 209.7617 150.2515 14.83596455932372
SL-14 R/B               
1 20511U 90018B   26095.30396326  .00000632  00000+0  76229-4 0  9991
2 20511  82.5244 198.2203 0016344   9.6350 350.5175 14.82173207926527
HST                     
1 20580U 90037B   26094.64776769  .00011124  00000+0  36493-3 0  9993
2 20580  28.4724 222.8665 0002193  61.0619 299.0197 15.29923140777298
SL-16 R/B               
1 20625U 90046B   26094.85313983  .00000008  00000+0  28972-4 0  9994
2 20625  70.9988 242.9608 0016569 265.7039  94.2190 14.15019317852099
COSMOS 2084             
1 20663U 90055A   26095.15359745  .00004224  00000+0  30297-3 0  9992
2 20663  62.7898 245.3050 0012842 199.2361 160.8256 15.05819512940307
SL-6 R/B(2)             
1 20666U 90055D   26095.17260697  .00002735  00000+0  21118-3 0  9991
2 20666  62.7826 163.7831 0029139 352.9388   7.1296 15.03730678942172
SL-8 R/B                
1 20775U 90078B   26095.31244530  .00014660  00000+0  43401-3 0  9990
2 20775  82.9045 227.3495 0357392 284.1354  72.0402 14.89863070813260
SL-8 R/B                
1 21088U 91006B   26095.28301174  .00000121  00000+0  10607-3 0  9993
2 21088  82.9433 150.2735 0021406 323.6550 102.8029 13.77498855767739
OKEAN-3                 
1 21397U 91039A   26095.07633576  .00004334  00000+0  30334-3 0  9992
2 21397  82.5150 311.2743 0012907 239.2038 120.7918 15.04972348869006
COSMOS 2151             
1 21422U 91042A   26095.29710901  .00003392  00000+0  26882-3 0  9993
2 21422  82.4964  58.0027 0011663 337.8762  22.1957 15.00231990867187
SL-14 R/B               
1 21423U 91042B   26095.29516057  .00000655  00000+0  79647-4 0  9997
2 21423  82.4961 195.2405 0017829 149.5691 210.6562 14.81858560857011
